STARLINK-3709           
1 52102U 22029Q   26068.46540797 -.00000304  00000+0 -10386-5 0  9990
2 52102  53.2169  80.1297 0001377  94.1130 266.0020 15.08832354220752
PRSC-S1                 
1 65055U 25164A   26068.60758212  .00007316  00000+0  46631-3 0  9991
2 65055  41.1290 129.3637 0004466 348.3012  11.7698 15.08919510 33403
